COSMOS 2588             
1 64095U 25109A   26068.81179522  .00009169  00000+0  32611-3 0  9998
2 64095  72.9704  73.5401 0005019 308.6780  51.3966 15.29122656 44425
STARLINK-33929          
1 64188U 25113U   26068.29263516  .00010966  00000+0  38190-3 0  9990
2 64188  53.1576  93.0195 0000977  77.6055 282.5055 15.30193129 45006
