[{"OBJECT_NAME":"COSMOS 2588","OBJECT_ID":"2025-109A","EPOCH":"2026-03-09T19:28:59.107008","MEAN_MOTION":15.29122656,"ECCENTRICITY":0.0005019,"INCLINATION":72.9704,"RA_OF_ASC_NODE":73.5401,"ARG_OF_PERICENTER":308.678,"MEAN_ANOMALY":51.3966,"EPHEMERIS_TYPE":0,"CLASSIFICATION_TYPE":"U","NORAD_CAT_ID":64095,"ELEMENT_SET_NO":999,"REV_AT_EPOCH":4442,"BSTAR":0.00032611,"MEAN_MOTION_DOT":9.169e-5,"MEAN_MOTION_DDOT":0},{"OBJECT_NAME":"STARLINK-33929","OBJECT_ID":"2025-113U","EPOCH":"2026-03-09T07:01:23.677824","MEAN_MOTION":15.30193129,"ECCENTRICITY":9.774e-5,"INCLINATION":53.1576,"RA_OF_ASC_NODE":93.0195,"ARG_OF_PERICENTER":77.6055,"MEAN_ANOMALY":282.5055,"EPHEMERIS_TYPE":0,"CLASSIFICATION_TYPE":"U","NORAD_CAT_ID":64188,"ELEMENT_SET_NO":999,"REV_AT_EPOCH":4500,"BSTAR":0.00038189977,"MEAN_MOTION_DOT":0.00010966,"MEAN_MOTION_DDOT":0}]
